OBJECT_NAME,OBJECT_ID,EPOCH,MEAN_MOTION,ECCENTRICITY,INCLINATION,RA_OF_ASC_NODE,ARG_OF_PERICENTER,MEAN_ANOMALY,EPHEMERIS_TYPE,CLASSIFICATION_TYPE,NORAD_CAT_ID,ELEMENT_SET_NO,REV_AT_EPOCH,BSTAR,MEAN_MOTION_DOT,MEAN_MOTION_DDOT
IONOSFERA-M 2,2024-199B,2026-06-04T22:06:20.428992,14.22755267,.00015135,98.7186,29.1326,49.9177,310.2134,0,U,61736,999,12908,.54893084E-4,.79E-6,0
PRSC-EO1,2025-012A,2026-06-04T23:51:35.030880,15.17604902,.0004204,97.4223,228.6917,310.4397,49.6470,0,U,62725,999,7634,.25052E-3,.4971E-4,0
BIOMASS,2025-090A,2026-06-04T01:53:32.904384,14.67537224,.00013977,98.0746,342.5882,63.8966,296.2382,0,U,63772,999,5876,.13087807E-3,.694E-5,0
GOSAT-GW (IBUKI GW),2025-141A,2026-06-04T23:39:20.992896,14.67548962,.00013761,98.0571,93.5025,75.6485,284.4872,0,U,64694,999,5005,.16202782E-3,.871E-5,0
IONOSFERA-M 3,2025-155A,2026-06-04T23:57:21.983904,14.21484341,.0000261,98.6020,118.2105,190.6734,169.4438,0,U,64876,999,4467,.53569981E-4,.74E-6,0
IONOSFERA-M 4,2025-155B,2026-06-04T23:06:12.362976,14.21486484,.00006349,98.6024,118.0934,110.8846,249.2400,0,U,64877,999,4466,.53338539E-4,.74E-6,0
MICROCARB,2025-156A,2026-06-04T17:06:33.121440,14.72312642,.00152893,97.9831,233.0726,315.5764,44.4217,0,U,64899,999,4613,.11034535E-3,.649E-5,0
CO3D 3,2025-156B,2026-06-04T22:40:12.779904,15.20207445,.0000976,97.4325,234.8137,143.0279,217.1024,0,U,64900,999,4767,.26305978E-3,.5632E-4,0
CO3D 4,2025-156C,2026-06-04T22:40:27.257952,15.20207427,.00009871,97.4327,234.8136,37.4819,322.6485,0,U,64901,999,4767,.25511439E-3,.546E-4,0
CO3D 2,2025-156D,2026-06-04T21:52:24.891744,15.20211961,.00013459,97.4326,234.6800,119.8685,240.2684,0,U,64902,999,4766,.25161663E-3,.5385E-4,0
CO3D 1,2025-156E,2026-06-04T21:52:38.225856,15.20203360,.00011108,97.4325,234.6803,120.4423,239.6922,0,U,64903,999,4766,.26325937E-3,.5636E-4,0
PRSC-S1,2025-164A,2026-06-04T22:22:25.482432,15.06340209,.00076636,41.1316,356.8259,272.8772,87.1165,0,U,65055,999,4658,.3923899E-3,.5704E-4,0
SENTINEL-6B,2025-264A,2026-06-04T04:52:45.263424,12.80929598,.000806,66.0384,162.1463,269.2892,90.7199,0,U,66514,999,2550,.18263494E-4,-.57E-6,0
CAS500-3,2025-274F,2026-06-04T05:44:50.944128,14.88289034,.00059705,97.7446,83.5854,145.0910,215.0700,0,U,66655,999,2822,.17689388E-3,.1582E-4,0
CSG-3,2026-001A,2026-06-04T07:18:29.672640,14.82159942,.00013037,97.8886,339.0932,93.2972,266.8390,0,U,67304,999,2255,.59452757E-4,.421E-5,0
PRSC-E03,2026-092A,2026-06-04T22:14:56.008032,15.06610421,.00053466,37.9994,161.9736,282.1732,77.8431,0,U,68835,999,610,.17652537E-3,.2558E-4,0
CAS500-2,2026-100AK,2026-06-04T15:33:45.491616,15.20434131,.00115729,97.4084,53.7208,74.0899,286.1611,0,U,69013,999,490,.35747976E-3,.7744E-4,0
