IONOSFERA-M 2           
1 61736U 24199B   26155.92106978  .00000079  00000+0  54893-4 0  9997
2 61736  98.7186  29.1326 0001513  49.9177 310.2134 14.22755267129089
PRSC-EO1                
1 62725U 25012A   26155.99415545  .00004971  00000+0  25052-3 0  9990
2 62725  97.4223 228.6917 0004204 310.4397  49.6470 15.17604902 76348
BIOMASS                 
1 63772U 25090A   26155.07885306  .00000694  00000+0  13088-3 0  9998
2 63772  98.0746 342.5882 0001397  63.8966 296.2382 14.67537224 58760
GOSAT-GW (IBUKI GW)     
1 64694U 25141A   26155.98565964  .00000871  00000+0  16203-3 0  9993
2 64694  98.0571  93.5025 0001376  75.6485 284.4872 14.67548962 50054
IONOSFERA-M 3           
1 64876U 25155A   26155.99817111  .00000074  00000+0  53570-4 0  9999
2 64876  98.6020 118.2105 0000261 190.6734 169.4438 14.21484341 44673
IONOSFERA-M 4           
1 64877U 25155B   26155.96264309  .00000074  00000+0  53339-4 0  9995
2 64877  98.6024 118.0934 0000634 110.8846 249.2400 14.21486484 44663
MICROCARB               
1 64899U 25156A   26155.71288335  .00000649  00000+0  11035-3 0  9992
2 64899  97.9831 233.0726 0015289 315.5764  44.4217 14.72312642 46132
CO3D 3                  
1 64900U 25156B   26155.94459236  .00005632  00000+0  26306-3 0  9994
2 64900  97.4325 234.8137 0000976 143.0279 217.1024 15.20207445 47678
CO3D 4                  
1 64901U 25156C   26155.94475993  .00005460  00000+0  25511-3 0  9999
2 64901  97.4327 234.8136 0000987  37.4819 322.6485 15.20207427 47671
CO3D 2                  
1 64902U 25156D   26155.91139921  .00005385  00000+0  25162-3 0  9993
2 64902  97.4326 234.6800 0001345 119.8685 240.2684 15.20211961 47665
CO3D 1                  
1 64903U 25156E   26155.91155354  .00005636  00000+0  26326-3 0  9994
2 64903  97.4325 234.6803 0001110 120.4423 239.6922 15.20203360 47667
PRSC-S1                 
1 65055U 25164A   26155.93223938  .00005704  00000+0  39239-3 0  9991
2 65055  41.1316 356.8259 0007663 272.8772  87.1165 15.06340209 46585
SENTINEL-6B             
1 66514U 25264A   26155.20330166 -.00000057  00000+0  18263-4 0  9997
2 66514  66.0384 162.1463 0008060 269.2892  90.7199 12.80929598 25506
CAS500-3                
1 66655U 25274F   26155.23947852  .00001582  00000+0  17689-3 0  9996
2 66655  97.7446  83.5854 0005970 145.0910 215.0700 14.88289034 28227
CSG-3                   
1 67304U 26001A   26155.30451010  .00000421  00000+0  59453-4 0  9998
2 67304  97.8886 339.0932 0001303  93.2972 266.8390 14.82159942 22559
PRSC-E03                
1 68835U 26092A   26155.92703713  .00002558  00000+0  17653-3 0  9994
2 68835  37.9994 161.9736 0005346 282.1732  77.8431 15.06610421  6102
CAS500-2                
1 69013U 26100AK  26155.64844319  .00007744  00000+0  35748-3 0  9997
2 69013  97.4084  53.7208 0011572  74.0899 286.1611 15.20434131  4903
